OBJECT_NAME,OBJECT_ID,EPOCH,MEAN_MOTION,ECCENTRICITY,INCLINATION,RA_OF_ASC_NODE,ARG_OF_PERICENTER,MEAN_ANOMALY,EPHEMERIS_TYPE,CLASSIFICATION_TYPE,NORAD_CAT_ID,ELEMENT_SET_NO,REV_AT_EPOCH,BSTAR,MEAN_MOTION_DOT,MEAN_MOTION_DDOT
FLOCK 4BE-30,2024-149AH,2026-06-03T05:26:31.528320,15.53022279,.0002042,97.3782,239.3119,228.7845,131.3232,0,U,60499,999,9960,.21053E-2,.133304E-2,0
NUSAT-49 (KLARA DAN VON NEUMANN),2024-149AJ,2026-06-04T06:00:39.185856,15.30279554,.00021844,97.3776,236.6282,33.0572,327.0805,0,U,60500,999,10015,.35426985E-3,.10305E-3,0
FLOCK 4BE-11,2024-149AK,2026-06-03T05:41:48.639264,15.42496654,.0002454,97.3705,238.2358,340.6062,19.5091,0,U,60501,999,10020,.43869E-3,.18948E-3,0
YAM-7,2024-149AN,2026-06-04T02:56:13.513632,15.31631643,.00029639,97.3782,235.4268,10.1957,349.9344,0,U,60504,999,10005,.27824409E-3,.8423E-4,0
FLOCK 4BE-24,2024-149AP,2026-06-03T19:23:59.959104,15.42549214,.00027729,97.3717,239.0643,347.5290,12.5888,0,U,60505,999,10030,.50060675E-3,.2168E-3,0
LUR-1,2024-149AQ,2026-06-04T02:21:18.427680,15.29927979,.00040026,97.3739,234.0226,14.6350,345.5006,0,U,60506,999,9997,.28038507E-3,.8051E-4,0
TANAGER-1,2024-149AR,2026-06-03T21:09:17.506368,15.44878007,.0003837,97.2828,249.1210,357.1996,2.9230,0,U,60507,999,10098,.24806E-3,.11564E-3,0
EAGLEEYE,2024-149AS,2026-06-04T00:54:59.572800,15.68509188,.00026634,97.3728,247.6740,276.6116,83.4842,0,U,60508,999,10087,.80785602E-3,.91923E-3,0
FLOCK 4BE-29,2024-149AT,2026-06-03T04:19:51.061440,15.43656564,.00022345,97.3812,239.8471,18.3317,341.8011,0,U,60509,999,10025,.41767418E-3,.18751E-3,0
TRANSPORTER-11 OBJECT AU,2024-149AU,2026-06-04T06:11:11.136192,15.39849645,.0002961,97.3730,238.8786,357.7909,2.3324,0,U,60510,999,10032,.42544107E-3,.16825E-3,0
FLOCK 4BE-2,2024-149AV,2026-06-04T00:50:40.871328,15.51274572,.00021107,97.3831,241.9688,323.4896,36.6212,0,U,60511,999,10046,.98931659E-3,.58245E-3,0
FLOCK 4BE-13,2024-149AW,2026-06-04T01:04:55.312896,15.41518471,.00029093,97.3720,239.3236,330.5983,29.5100,0,U,60512,999,10034,.38029979E-3,.15882E-3,0
FLOCK 4BE-27,2024-149AX,2026-06-03T22:55:45.810048,15.34204933,.00036677,97.3825,236.8026,14.1325,346.0020,0,U,60513,999,10011,.30972704E-3,.1018E-3,0
FLOCK 4BE-9,2024-149AY,2026-06-04T00:50:02.376672,15.40392216,.00022313,97.3790,239.1827,16.0745,344.0572,0,U,60514,999,10029,.43931524E-3,.1769E-3,0
FLOCK 4BE-6,2024-149BA,2026-06-04T02:50:19.198464,15.39209487,.00027633,97.3788,238.6498,8.8648,351.2646,0,U,60516,999,10026,.39792037E-3,.15401E-3,0
FLOCK 4BE-14,2024-149BB,2026-06-03T11:08:31.609536,15.40548180,.00036415,97.3697,238.1159,1.9742,358.1518,0,U,60517,999,10021,.46612032E-3,.18877E-3,0
FLOCK 4BE-1,2024-149BC,2026-06-04T00:19:24.439584,15.42146793,.00033621,97.3779,239.9002,358.8581,1.2658,0,U,60518,999,10034,.48252684E-3,.20613E-3,0
FLOCK 4BE-28,2024-149BD,2026-06-04T01:08:03.571584,15.44427824,.00033098,97.3746,240.6178,352.1802,7.9394,0,U,60519,999,10041,.42722533E-3,.19693E-3,0
IPERDRONE.0,2024-149BE,2026-06-03T05:53:39.780384,15.64625891,.0002237,97.3781,246.7910,263.5446,96.5558,0,U,60520,999,10073,.79644E-3,.77419E-3,0
TRANSPORTER-11 OBJECT BF,2024-149BF,2026-06-03T05:03:34.873056,15.78829271,.0004143,97.3774,249.1325,254.4467,105.6342,0,U,60521,999,10087,.11419E-2,.204654E-2,0
CONNECTA IOT-2,2024-149BG,2026-06-03T12:32:06.192096,15.23853521,.00068893,97.3839,232.8759,27.3779,332.7820,0,U,60522,999,9981,.21540778E-3,.5127E-4,0
PTD-R (TYVAK-0127),2024-149BH,2026-06-03T06:15:56.934432,15.99581707,.0005833,97.3876,253.7884,270.1081,89.9528,0,U,60523,999,10120,.13001821E-2,.642488E-2,.18643626E-3
CONNECTA IOT-4,2024-149BJ,2026-06-04T02:21:17.537760,15.41650668,.00044676,97.3796,239.3188,347.1728,12.9405,0,U,60524,999,10031,.52988473E-3,.22282E-3,0
ORESAT0.5,2024-149BK,2026-06-03T04:35:54.506112,15.44531443,.0004447,97.3723,239.9838,340.1372,19.9703,0,U,60525,999,10031,.47997E-3,.22224E-3,0
DEIMOS,2024-149BL,2026-06-03T05:11:19.576320,15.43704684,.0004554,97.3784,240.1556,348.5586,11.5558,0,U,60526,999,10029,.46923E-3,.21123E-3,0
CUAVA-2,2024-149BM,2026-06-04T05:58:38.641440,15.35810649,.000595,97.3724,236.7491,350.9189,9.1946,0,U,60527,999,10018,.40060143E-3,.13893E-3,0
ERNST,2024-149BN,2026-06-04T00:52:04.672416,15.38849600,.00052969,97.3807,238.6607,357.1854,2.9360,0,U,60528,999,10025,.39498899E-3,.15112E-3,0
TORO,2024-149BQ,2026-06-04T03:12:16.373376,14.96370964,.00013666,97.6778,230.0455,86.7526,273.3852,0,U,60530,999,9800,.20687208E-3,.2285E-4,0
HYPSO-2,2024-149BR,2026-06-04T04:21:53.935200,14.98737079,.00021532,97.6836,231.6334,61.9102,298.2338,0,U,60531,999,9810,.22010964E-3,.259E-4,0
LEMU NGE,2024-149BS,2026-06-04T03:11:27.924576,14.94895650,.00024024,97.6837,230.3567,82.1031,278.0462,0,U,60532,999,9800,.24580203E-3,.2624E-4,0
